STARLINK-30773          
1 58161U 23166M   26068.71542921  .00005904  00000+0  21136-3 0  9995
2 58161  53.1593 219.4473 0000971  52.9742 307.1347 15.30190199133184
TRANSPORTER-12 OBJECT AZ
1 62656U 25009AZ  26068.71026235  .00016057  00000+0  54903-3 0  9991
2 62656  97.3981 151.9913 0000987  45.3581 314.7740 15.30349724 63792
